[{"OBJECT_NAME":"ONEWEB-0661","OBJECT_ID":"2023-029AB","EPOCH":"2025-09-09T06:53:10.019328","MEAN_MOTION":13.14503871,"ECCENTRICITY":0.00017729,"INCLINATION":87.9093,"RA_OF_ASC_NODE":345.6809,"ARG_OF_PERICENTER":88.4046,"MEAN_ANOMALY":271.7287,"EPHEMERIS_TYPE":0,"CLASSIFICATION_TYPE":"U","NORAD_CAT_ID":55821,"ELEMENT_SET_NO":999,"REV_AT_EPOCH":12248,"BSTAR":-0.00024636996,"MEAN_MOTION_DOT":-7.9e-7,"MEAN_MOTION_DDOT":0},{"OBJECT_NAME":"ONEWEB-0662","OBJECT_ID":"2023-029AC","EPOCH":"2025-09-09T05:53:47.593536","MEAN_MOTION":13.14503917,"ECCENTRICITY":0.00015595,"INCLINATION":87.909,"RA_OF_ASC_NODE":345.6953,"ARG_OF_PERICENTER":91.2732,"MEAN_ANOMALY":268.8577,"EPHEMERIS_TYPE":0,"CLASSIFICATION_TYPE":"U","NORAD_CAT_ID":55822,"ELEMENT_SET_NO":999,"REV_AT_EPOCH":12252,"BSTAR":0.00074447687,"MEAN_MOTION_DOT":2.89e-6,"MEAN_MOTION_DDOT":0},{"OBJECT_NAME":"ONEWEB-0663","OBJECT_ID":"2023-029AD","EPOCH":"2025-09-09T06:35:18.103776","MEAN_MOTION":13.20845415,"ECCENTRICITY":0.0001501,"INCLINATION":87.9302,"RA_OF_ASC_NODE":330.4808,"ARG_OF_PERICENTER":91.0431,"MEAN_ANOMALY":269.0874,"EPHEMERIS_TYPE":0,"CLASSIFICATION_TYPE":"U","NORAD_CAT_ID":55823,"ELEMENT_SET_NO":999,"REV_AT_EPOCH":12406,"BSTAR":6.9881578e-5,"MEAN_MOTION_DOT":4.1e-7,"MEAN_MOTION_DDOT":0},{"OBJECT_NAME":"ONEWEB-0664","OBJECT_ID":"2023-029AE","EPOCH":"2025-09-09T06:50:48.884064","MEAN_MOTION":13.2074772,"ECCENTRICITY":0.00020122,"INCLINATION":87.9289,"RA_OF_ASC_NODE":330.4989,"ARG_OF_PERICENTER":87.0323,"MEAN_ANOMALY":273.104,"EPHEMERIS_TYPE":0,"CLASSIFICATION_TYPE":"U","NORAD_CAT_ID":55824,"ELEMENT_SET_NO":999,"REV_AT_EPOCH":12406,"BSTAR":0.012017312,"MEAN_MOTION_DOT":4.9e-5,"MEAN_MOTION_DDOT":0},{"OBJECT_NAME":"ONEWEB-0665","OBJECT_ID":"2023-029AF","EPOCH":"2025-09-09T06:48:35.244000","MEAN_MOTION":13.14503437,"ECCENTRICITY":0.00016067,"INCLINATION":87.9099,"RA_OF_ASC_NODE":345.6566,"ARG_OF_PERICENTER":94.2686,"MEAN_ANOMALY":265.8628,"EPHEMERIS_TYPE":0,"CLASSIFICATION_TYPE":"U","NORAD_CAT_ID":55825,"ELEMENT_SET_NO":999,"REV_AT_EPOCH":12250,"BSTAR":-0.00020700917,"MEAN_MOTION_DOT":-6.4e-7,"MEAN_MOTION_DDOT":0},{"OBJECT_NAME":"ONEWEB-0666","OBJECT_ID":"2023-029AG","EPOCH":"2025-09-09T06:41:43.151424","MEAN_MOTION":13.20770858,"ECCENTRICITY":0.0002416,"INCLINATION":87.9286,"RA_OF_ASC_NODE":330.4881,"ARG_OF_PERICENTER":113.265,"MEAN_ANOMALY":246.8738,"EPHEMERIS_TYPE":0,"CLASSIFICATION_TYPE":"U","NORAD_CAT_ID":55826,"ELEMENT_SET_NO":999,"REV_AT_EPOCH":12407,"BSTAR":9.0734175e-5,"MEAN_MOTION_DOT":5.0e-7,"MEAN_MOTION_DDOT":0},{"OBJECT_NAME":"ONEWEB-0667","OBJECT_ID":"2023-029AH","EPOCH":"2025-09-09T06:32:37.223520","MEAN_MOTION":13.20770376,"ECCENTRICITY":0.00017747,"INCLINATION":87.9288,"RA_OF_ASC_NODE":330.417,"ARG_OF_PERICENTER":93.4273,"MEAN_ANOMALY":266.7064,"EPHEMERIS_TYPE":0,"CLASSIFICATION_TYPE":"U","NORAD_CAT_ID":55827,"ELEMENT_SET_NO":999,"REV_AT_EPOCH":12406,"BSTAR":0.00013399526,"MEAN_MOTION_DOT":6.7e-7,"MEAN_MOTION_DDOT":0},{"OBJECT_NAME":"ONEWEB-0669","OBJECT_ID":"2023-029AJ","EPOCH":"2025-09-09T06:25:47.386848","MEAN_MOTION":13.20770147,"ECCENTRICITY":0.00025504,"INCLINATION":87.9294,"RA_OF_ASC_NODE":330.4575,"ARG_OF_PERICENTER":93.9391,"MEAN_ANOMALY":266.2034,"EPHEMERIS_TYPE":0,"CLASSIFICATION_TYPE":"U","NORAD_CAT_ID":55828,"ELEMENT_SET_NO":999,"REV_AT_EPOCH":12406,"BSTAR":-0.0005526885,"MEAN_MOTION_DOT":-2.12e-6,"MEAN_MOTION_DDOT":0},{"OBJECT_NAME":"ONEWEB-0670","OBJECT_ID":"2023-029AK","EPOCH":"2025-09-09T06:16:38.019360","MEAN_MOTION":13.14503439,"ECCENTRICITY":0.0001844,"INCLINATION":87.9096,"RA_OF_ASC_NODE":345.6813,"ARG_OF_PERICENTER":86.983,"MEAN_ANOMALY":273.1511,"EPHEMERIS_TYPE":0,"CLASSIFICATION_TYPE":"U","NORAD_CAT_ID":55829,"ELEMENT_SET_NO":999,"REV_AT_EPOCH":12252,"BSTAR":0.00067931365,"MEAN_MOTION_DOT":2.65e-6,"MEAN_MOTION_DDOT":0},{"OBJECT_NAME":"ONEWEB-0671","OBJECT_ID":"2023-029AL","EPOCH":"2025-09-09T05:42:51.554016","MEAN_MOTION":13.1972408,"ECCENTRICITY":0.00017269,"INCLINATION":87.928,"RA_OF_ASC_NODE":0.847,"ARG_OF_PERICENTER":93.5876,"MEAN_ANOMALY":266.5454,"EPHEMERIS_TYPE":0,"CLASSIFICATION_TYPE":"U","NORAD_CAT_ID":55830,"ELEMENT_SET_NO":999,"REV_AT_EPOCH":12184,"BSTAR":0.00014428237,"MEAN_MOTION_DOT":7.1e-7,"MEAN_MOTION_DDOT":0},{"OBJECT_NAME":"ONEWEB-0672","OBJECT_ID":"2023-029AM","EPOCH":"2025-09-09T06:18:58.899744","MEAN_MOTION":13.20773047,"ECCENTRICITY":0.00021593,"INCLINATION":87.9287,"RA_OF_ASC_NODE":330.4418,"ARG_OF_PERICENTER":103.2905,"MEAN_ANOMALY":256.847,"EPHEMERIS_TYPE":0,"CLASSIFICATION_TYPE":"U","NORAD_CAT_ID":55831,"ELEMENT_SET_NO":999,"REV_AT_EPOCH":12406,"BSTAR":0.00022870099,"MEAN_MOTION_DOT":1.06e-6,"MEAN_MOTION_DDOT":0},{"OBJECT_NAME":"ONEWEB-0673","OBJECT_ID":"2023-029AN","EPOCH":"2025-09-09T06:57:54.995040","MEAN_MOTION":13.19724837,"ECCENTRICITY":0.00016046,"INCLINATION":87.9292,"RA_OF_ASC_NODE":0.8032,"ARG_OF_PERICENTER":101.1097,"MEAN_ANOMALY":259.0216,"EPHEMERIS_TYPE":0,"CLASSIFICATION_TYPE":"U","NORAD_CAT_ID":55832,"ELEMENT_SET_NO":999,"REV_AT_EPOCH":12185,"BSTAR":2.8065441e-5,"MEAN_MOTION_DOT":2.4e-7,"MEAN_MOTION_DDOT":0},{"OBJECT_NAME":"ONEWEB-0674","OBJECT_ID":"2023-029AP","EPOCH":"2025-09-09T05:30:56.794464","MEAN_MOTION":13.14505603,"ECCENTRICITY":0.00019685,"INCLINATION":87.9096,"RA_OF_ASC_NODE":345.6707,"ARG_OF_PERICENTER":85.5844,"MEAN_ANOMALY":274.551,"EPHEMERIS_TYPE":0,"CLASSIFICATION_TYPE":"U","NORAD_CAT_ID":55833,"ELEMENT_SET_NO":999,"REV_AT_EPOCH":12250,"BSTAR":0.00017609746,"MEAN_MOTION_DOT":7.8e-7,"MEAN_MOTION_DDOT":0},{"OBJECT_NAME":"ONEWEB-0675","OBJECT_ID":"2023-029AQ","EPOCH":"2025-09-09T07:20:39.707232","MEAN_MOTION":13.19724857,"ECCENTRICITY":0.00018576,"INCLINATION":87.9281,"RA_OF_ASC_NODE":0.8445,"ARG_OF_PERICENTER":109.7987,"MEAN_ANOMALY":250.3346,"EPHEMERIS_TYPE":0,"CLASSIFICATION_TYPE":"U","NORAD_CAT_ID":55834,"ELEMENT_SET_NO":999,"REV_AT_EPOCH":12187,"BSTAR":0.00020110793,"MEAN_MOTION_DOT":9.3e-7,"MEAN_MOTION_DDOT":0},{"OBJECT_NAME":"ONEWEB-0720","OBJECT_ID":"2023-029AR","EPOCH":"2025-09-09T07:09:18.167616","MEAN_MOTION":13.19725864,"ECCENTRICITY":0.00014026,"INCLINATION":87.928,"RA_OF_ASC_NODE":0.8427,"ARG_OF_PERICENTER":94.5827,"MEAN_ANOMALY":265.5466,"EPHEMERIS_TYPE":0,"CLASSIFICATION_TYPE":"U","NORAD_CAT_ID":55835,"ELEMENT_SET_NO":999,"REV_AT_EPOCH":12179,"BSTAR":0.0001879306,"MEAN_MOTION_DOT":8.8e-7,"MEAN_MOTION_DDOT":0},{"OBJECT_NAME":"ONEWEB-0537","OBJECT_ID":"2023-043A","EPOCH":"2025-09-09T03:47:16.896480","MEAN_MOTION":13.16595599,"ECCENTRICITY":0.00020228,"INCLINATION":87.9,"RA_OF_ASC_NODE":284.7762,"ARG_OF_PERICENTER":98.7224,"MEAN_ANOMALY":261.4136,"EPHEMERIS_TYPE":0,"CLASSIFICATION_TYPE":"U","NORAD_CAT_ID":56046,"ELEMENT_SET_NO":999,"REV_AT_EPOCH":12198,"BSTAR":-8.035625e-6,"MEAN_MOTION_DOT":1.0e-7,"MEAN_MOTION_DDOT":0},{"OBJECT_NAME":"ONEWEB-0538","OBJECT_ID":"2023-043B","EPOCH":"2025-09-09T03:38:10.695552","MEAN_MOTION":13.1659424,"ECCENTRICITY":0.00017397,"INCLINATION":87.899,"RA_OF_ASC_NODE":284.7899,"ARG_OF_PERICENTER":101.6824,"MEAN_ANOMALY":258.4502,"EPHEMERIS_TYPE":0,"CLASSIFICATION_TYPE":"U","NORAD_CAT_ID":56047,"ELEMENT_SET_NO":999,"REV_AT_EPOCH":12199,"BSTAR":0.00020182627,"MEAN_MOTION_DOT":9.0e-7,"MEAN_MOTION_DDOT":0}]
