ONEWEB-0661             
1 55821U 23029AB  25252.28692152 -.00000079  00000+0 -24637-3 0  9990
2 55821  87.9093 345.6809 0001772  88.4046 271.7287 13.14503871122485
ONEWEB-0662             
1 55822U 23029AC  25252.24568974  .00000289  00000+0  74448-3 0  9997
2 55822  87.9090 345.6953 0001559  91.2732 268.8577 13.14503917122525
ONEWEB-0663             
1 55823U 23029AD  25252.27451509  .00000041  00000+0  69882-4 0  9999
2 55823  87.9302 330.4808 0001501  91.0431 269.0874 13.20845415124067
ONEWEB-0664             
1 55824U 23029AE  25252.28528801  .00004900  00000+0  12017-1 0  9994
2 55824  87.9289 330.4989 0002012  87.0323 273.1040 13.20747720124066
ONEWEB-0665             
1 55825U 23029AF  25252.28374125 -.00000064  00000+0 -20701-3 0  9993
2 55825  87.9099 345.6566 0001606  94.2686 265.8628 13.14503437122500
ONEWEB-0666             
1 55826U 23029AG  25252.27897166  .00000050  00000+0  90734-4 0  9995
2 55826  87.9286 330.4881 0002416 113.2650 246.8738 13.20770858124079
ONEWEB-0667             
1 55827U 23029AH  25252.27265305  .00000067  00000+0  13400-3 0  9992
2 55827  87.9288 330.4170 0001774  93.4273 266.7064 13.20770376124066
ONEWEB-0669             
1 55828U 23029AJ  25252.26790957 -.00000212  00000+0 -55269-3 0  9991
2 55828  87.9294 330.4575 0002550  93.9391 266.2034 13.20770147124060
ONEWEB-0670             
1 55829U 23029AK  25252.26155115  .00000265  00000+0  67931-3 0  9998
2 55829  87.9096 345.6813 0001844  86.9830 273.1511 13.14503439122526
ONEWEB-0671             
1 55830U 23029AL  25252.23809669  .00000071  00000+0  14428-3 0  9995
2 55830  87.9280   0.8470 0001726  93.5876 266.5454 13.19724080121843
ONEWEB-0672             
1 55831U 23029AM  25252.26318171  .00000106  00000+0  22870-3 0  9991
2 55831  87.9287 330.4418 0002159 103.2905 256.8470 13.20773047124064
ONEWEB-0673             
1 55832U 23029AN  25252.29021985  .00000024  00000+0  28065-4 0  9991
2 55832  87.9292   0.8032 0001604 101.1097 259.0216 13.19724837121852
ONEWEB-0674             
1 55833U 23029AP  25252.22982401  .00000078  00000+0  17610-3 0  9996
2 55833  87.9096 345.6707 0001968  85.5844 274.5510 13.14505603122507
ONEWEB-0675             
1 55834U 23029AQ  25252.30601513  .00000093  00000+0  20111-3 0  9995
2 55834  87.9281   0.8445 0001857 109.7987 250.3346 13.19724857121874
ONEWEB-0720             
1 55835U 23029AR  25252.29812694  .00000088  00000+0  18793-3 0  9995
2 55835  87.9280   0.8427 0001402  94.5827 265.5466 13.19725864121795
ONEWEB-0537             
1 56046U 23043A   25252.15783445  .00000010  00000+0 -80356-5 0  9994
2 56046  87.9000 284.7762 0002022  98.7224 261.4136 13.16595599121988
ONEWEB-0538             
1 56047U 23043B   25252.15151268  .00000090  00000+0  20183-3 0  9994
2 56047  87.8990 284.7899 0001739 101.6824 258.4502 13.16594240121997
